GLOBALSTAR M067 [+]     
1 32263U 07048A   23264.56032222 -.00000078  00000+0  14135-3 0  9996
2 32263  51.9720  92.8316 0001701  73.3917 322.0680 12.40631945730714
GLOBALSTAR M070 [+]     
1 32264U 07048B   23264.34377562 -.00000068  00000+0  19959-3 0  9990
2 32264  51.9733 262.4260 0000586 119.5014 349.6544 12.62278422733496
GLOBALSTAR M066 [+]     
1 32265U 07048C   23264.76913640 -.00000076  00000+0  15329-3 0  9996
2 32265  51.9663 123.2049 0001046  31.6417  45.1025 12.62264892736751
GLOBALSTAR M068 [-]     
1 32266U 07048D   23264.43021598 -.00000116  00000+0 -69445-4 0  9998
2 32266  51.9882  77.1080 0001157 131.1532 241.7682 12.62766342737362
GLOBALSTAR M079 [+]     
1 37188U 10054A   23264.77899895 -.00000079  00000+0  13890-3 0  9996
2 37188  52.0024 271.0292 0000357  54.4541 116.8869 12.62267928597019
GLOBALSTAR M074 [+]     
1 37189U 10054B   23264.29539168 -.00000088  00000+0  90508-4 0  9990
2 37189  52.0003 271.9223 0000386  90.5020 282.3459 12.62270001596889
GLOBALSTAR M076 [+]     
1 37190U 10054C   23264.34152355 -.00000086  00000+0  99885-4 0  9992
2 37190  52.0020 271.8943 0000896  58.4970  44.6982 12.62261361596600
GLOBALSTAR M077 [+]     
1 37191U 10054D   23264.33915953 -.00000080  00000+0  13006-3 0  9997
2 37191  52.0055 228.5747 0000473  74.1440  76.8229 12.62260789596972
